[Satellite]
VERSION=1.1
NAME=COMPASS-1
NICKNAME=COMPASS-1
TLE1=1 32787U 08021E   15054.67364626  .00004168  00000-0  43822-3 0  9994
TLE2=2 32787  97.6670 105.8044 0014654  73.5363 286.7465 14.89881959369607
